start=new Date('2021-12-02T00:00:00.000Z').valueOf();
sats=[{"FILE":"3229208","SEMIMAJOR_AXIS":"6925.361","DECAY_DATE":null,"PERIOD":"95.592","REV_AT_EPOCH":"4472","RCS_SIZE":"LARGE","GP_ID":"190863720","PERIAPSIS":"545.783","OBJECT_ID":"2021-012BF","OBJECT_NAME":"STARLINK-2066","APOAPSIS":"548.670","MEAN_ELEMENT_THEORY":"SGP4","OBJECT_TYPE":"PAYLOAD","EPHEMERIS_TYPE":"0","CENTER_NAME":"EARTH","TIME_SYSTEM":"UTC","CLASSIFICATION_TYPE":"U","LAUNCH_DATE":"2021-02-16","INCLINATION":"53.0542","MEAN_MOTION":"15.06395779","NORAD_CAT_ID":"47673","SITE":"AFETR","COUNTRY_CODE":"US","TLE_LINE1":"1 47673U 21012BF  21335.38261064  .00000891  00000-0  78759-4 0  9995","ELEMENT_SET_NO":"999","RA_OF_ASC_NODE":"211.6145","BSTAR":"0.00007875900000","ECCENTRICITY":"0.00020840","ARG_OF_PERICENTER":"76.0941","MEAN_MOTION_DOT":"0.00000891","REF_FRAME":"TEME","EPOCH":"2021-12-01T09:10:57.559296","TLE_LINE2":"2 47673  53.0542 211.6145 0002084  76.0941 284.0280 15.06395779 44722","MEAN_ANOMALY":"284.0280","MEAN_MOTION_DDOT":"0.0000000000000"},{"OBJECT_ID":"2021-012BG","OBJECT_NAME":"STARLINK-2067","OBJECT_TYPE":"PAYLOAD","MEAN_ELEMENT_THEORY":"SGP4","APOAPSIS":"548.516","REV_AT_EPOCH":"4524","RCS_SIZE":"LARGE","DECAY_DATE":null,"FILE":"3229140","PERIOD":"95.593","SEMIMAJOR_AXIS":"6925.380","GP_ID":"190861167","PERIAPSIS":"545.973","INCLINATION":"53.0535","MEAN_MOTION":"15.06389857","NORAD_CAT_ID":"47674","EPHEMERIS_TYPE":"0","CENTER_NAME":"EARTH","LAUNCH_DATE":"2021-02-16","CLASSIFICATION_TYPE":"U","TIME_SYSTEM":"UTC","BSTAR":"0.00000980160000","ARG_OF_PERICENTER":"70.8421","ECCENTRICITY":"0.00018360","SITE":"AFETR","TLE_LINE1":"1 47674U 21012BG  21335.39735975 -.00000136  00000-0  98016-5 0  9996","COUNTRY_CODE":"US","RA_OF_ASC_NODE":"211.5425","ELEMENT_SET_NO":"999","MEAN_ANOMALY":"289.2767","MEAN_MOTION_DDOT":"0.0000000000000","MEAN_MOTION_DOT":"-0.00000136","REF_FRAME":"TEME","EPOCH":"2021-12-01T09:32:11.882400","TLE_LINE2":"2 47674  53.0535 211.5425 0001836  70.8421 289.2767 15.06389857 45249"},{"APOAPSIS":"548.779","MEAN_ELEMENT_THEORY":"SGP4","OBJECT_TYPE":"PAYLOAD","OBJECT_NAME":"STARLINK-2078","OBJECT_ID":"2021-012BH","PERIAPSIS":"545.643","GP_ID":"190861418","SEMIMAJOR_AXIS":"6925.346","FILE":"3229140","DECAY_DATE":null,"PERIOD":"95.592","REV_AT_EPOCH":"4524","RCS_SIZE":"LARGE","MEAN_MOTION":"15.06400853","NORAD_CAT_ID":"47675","INCLINATION":"53.0547","TIME_SYSTEM":"UTC","CLASSIFICATION_TYPE":"U","LAUNCH_DATE":"2021-02-16","CENTER_NAME":"EARTH","EPHEMERIS_TYPE":"0","ECCENTRICITY":"0.00022640","ARG_OF_PERICENTER":"70.7247","BSTAR":"0.00002402300000","ELEMENT_SET_NO":"999","RA_OF_ASC_NODE":"211.5822","COUNTRY_CODE":"US","TLE_LINE1":"1 47675U 21012BH  21335.38997931  .00000076  00000-0  24023-4 0  9996","SITE":"AFETR","MEAN_MOTION_DDOT":"0.0000000000000","MEAN_ANOMALY":"289.3987","EPOCH":"2021-12-01T09:21:34.212384","TLE_LINE2":"2 47675  53.0547 211.5822 0002264  70.7247 289.3987 15.06400853 45240","REF_FRAME":"TEME","MEAN_MOTION_DOT":"0.00000076"},{"SITE":"AFETR","COUNTRY_CODE":"US","TLE_LINE1":"1 47676U 21012BJ  21335.58334491 -.00930355  00000-0 -81033-2 0  9991","ELEMENT_SET_NO":"999","RA_OF_ASC_NODE":"108.0263","BSTAR":"-0.00810330000000","ARG_OF_PERICENTER":"272.0682","ECCENTRICITY":"0.00032750","MEAN_MOTION_DOT":"-0.00930355","REF_FRAME":"TEME","EPOCH":"2021-12-01T14:00:01.000224","TLE_LINE2":"2 47676  53.0545 108.0263 0003275 272.0682 234.9902 15.70641104 46185","MEAN_ANOMALY":"234.9902","MEAN_MOTION_DDOT":"0.0000000000000","FILE":"3229052","PERIOD":"91.682","DECAY_DATE":null,"SEMIMAJOR_AXIS":"6735.201","RCS_SIZE":"LARGE","REV_AT_EPOCH":"4618","GP_ID":"190836456","PERIAPSIS":"354.860","OBJECT_ID":"2021-012BJ","OBJECT_NAME":"STARLINK-2083","APOAPSIS":"359.271","MEAN_ELEMENT_THEORY":"SGP4","OBJECT_TYPE":"PAYLOAD","EPHEMERIS_TYPE":"0","CENTER_NAME":"EARTH","CLASSIFICATION_TYPE":"U","TIME_SYSTEM":"UTC","LAUNCH_DATE":"2021-02-16","INCLINATION":"53.0545","NORAD_CAT_ID":"47676","MEAN_MOTION":"15.70641104"},{"MEAN_MOTION_DDOT":"0.0000000000000","MEAN_ANOMALY":"286.0840","MEAN_MOTION_DOT":"0.00000605","TLE_LINE2":"2 47677  53.0556 231.3490 0001982  74.0367 286.0840 15.06394584 44962","EPOCH":"2021-12-01T10:38:32.513568","REF_FRAME":"TEME","BSTAR":"0.00005952100000","ARG_OF_PERICENTER":"74.0367","ECCENTRICITY":"0.00019820","TLE_LINE1":"1 47677U 21012BK  21335.44343187  .00000605  00000-0  59521-4 0  9992","COUNTRY_CODE":"US","SITE":"AFETR","RA_OF_ASC_NODE":"231.3490","ELEMENT_SET_NO":"999","INCLINATION":"53.0556","MEAN_MOTION":"15.06394584","NORAD_CAT_ID":"47677","EPHEMERIS_TYPE":"0","LAUNCH_DATE":"2021-02-16","CLASSIFICATION_TYPE":"U","TIME_SYSTEM":"UTC","CENTER_NAME":"EARTH","OBJECT_ID":"2021-012BK","OBJECT_TYPE":"PAYLOAD","APOAPSIS":"548.603","MEAN_ELEMENT_THEORY":"SGP4","OBJECT_NAME":"STARLINK-2090","REV_AT_EPOCH":"4496","RCS_SIZE":"LARGE","FILE":"3229140","SEMIMAJOR_AXIS":"6925.365","DECAY_DATE":null,"PERIOD":"95.592","PERIAPSIS":"545.858","GP_ID":"190859917"},{"INCLINATION":"53.0548","NORAD_CAT_ID":"47679","MEAN_MOTION":"15.06394367","EPHEMERIS_TYPE":"0","CENTER_NAME":"EARTH","LAUNCH_DATE":"2021-02-16","CLASSIFICATION_TYPE":"U","TIME_SYSTEM":"UTC","OBJECT_ID":"2021-012BM","OBJECT_NAME":"STARLINK-2095","OBJECT_TYPE":"PAYLOAD","MEAN_ELEMENT_THEORY":"SGP4","APOAPSIS":"548.511","REV_AT_EPOCH":"4497","RCS_SIZE":"LARGE","PERIOD":"95.592","FILE":"3229140","DECAY_DATE":null,"SEMIMAJOR_AXIS":"6925.366","GP_ID":"190860668","PERIAPSIS":"545.951","MEAN_ANOMALY":"286.3677","MEAN_MOTION_DDOT":"0.0000000000000","MEAN_MOTION_DOT":"-0.00001707","REF_FRAME":"TEME","TLE_LINE2":"2 47679  53.0548 231.5269 0001848  73.7515 286.3677 15.06394367 44974","EPOCH":"2021-12-01T09:44:05.800416","BSTAR":"-0.00009571500000","ECCENTRICITY":"0.00018480","ARG_OF_PERICENTER":"73.7515","SITE":"AFETR","TLE_LINE1":"1 47679U 21012BM  21335.40562269 -.00001707  00000-0 -95715-4 0  9995","COUNTRY_CODE":"US","RA_OF_ASC_NODE":"231.5269","ELEMENT_SET_NO":"999"},{"ARG_OF_PERICENTER":"62.2850","ECCENTRICITY":"0.00014440","BSTAR":"0.00006598000000","ELEMENT_SET_NO":"999","RA_OF_ASC_NODE":"356.1339","SITE":"AFETR","TLE_LINE1":"1 47722U 21017A   21335.49178330  .00000701  00000-0  65980-4 0  9992","COUNTRY_CODE":"US","MEAN_ANOMALY":"297.8285","MEAN_MOTION_DDOT":"0.0000000000000","REF_FRAME":"TEME","EPOCH":"2021-12-01T11:48:10.077120","TLE_LINE2":"2 47722  53.0576 356.1339 0001444  62.2850 297.8285 15.06394239 42982","MEAN_MOTION_DOT":"0.00000701","OBJECT_NAME":"STARLINK-2068","OBJECT_TYPE":"PAYLOAD","MEAN_ELEMENT_THEORY":"SGP4","APOAPSIS":"548.231","OBJECT_ID":"2021-017A","GP_ID":"190861423","PERIAPSIS":"546.231","REV_AT_EPOCH":"4298","RCS_SIZE":"LARGE","DECAY_DATE":null,"FILE":"3229140","PERIOD":"95.593","SEMIMAJOR_AXIS":"6925.366","NORAD_CAT_ID":"47722","MEAN_MOTION":"15.06394239","INCLINATION":"53.0576","CENTER_NAME":"EARTH","LAUNCH_DATE":"2021-03-04","TIME_SYSTEM":"UTC","CLASSIFICATION_TYPE":"U","EPHEMERIS_TYPE":"0"},{"TLE_LINE2":"2 47723  53.0548 290.6774 0002318  57.3629 302.7583 15.06399102 43226","EPOCH":"2021-12-01T14:08:11.175072","REF_FRAME":"TEME","MEAN_MOTION_DOT":"0.00000526","MEAN_MOTION_DDOT":"0.0000000000000","MEAN_ANOMALY":"302.7583","ELEMENT_SET_NO":"999","RA_OF_ASC_NODE":"290.6774","COUNTRY_CODE":"US","TLE_LINE1":"1 47723U 21017B   21335.58901823  .00000526  00000-0  54256-4 0  9993","SITE":"AFETR","ARG_OF_PERICENTER":"57.3629","ECCENTRICITY":"0.00023180","BSTAR":"0.00005425600000","TIME_SYSTEM":"UTC","CLASSIFICATION_TYPE":"U","LAUNCH_DATE":"2021-03-04","CENTER_NAME":"EARTH","EPHEMERIS_TYPE":"0","MEAN_MOTION":"15.06399102","NORAD_CAT_ID":"47723","INCLINATION":"53.0548","PERIAPSIS":"545.611","GP_ID":"190864259","DECAY_DATE":null,"FILE":"3229238","SEMIMAJOR_AXIS":"6925.351","PERIOD":"95.592","RCS_SIZE":"LARGE","REV_AT_EPOCH":"4322","MEAN_ELEMENT_THEORY":"SGP4","APOAPSIS":"548.822","OBJECT_TYPE":"PAYLOAD","OBJECT_NAME":"STARLINK-2107","OBJECT_ID":"2021-017B"},{"OBJECT_TYPE":"PAYLOAD","APOAPSIS":"548.616","MEAN_ELEMENT_THEORY":"SGP4","OBJECT_NAME":"STARLINK-2116","OBJECT_ID":"2021-017C","PERIAPSIS":"545.924","GP_ID":"190859922","REV_AT_EPOCH":"4377","RCS_SIZE":"LARGE","FILE":"3229140","DECAY_DATE":null,"SEMIMAJOR_AXIS":"6925.405","PERIOD":"95.593","MEAN_MOTION":"15.06381566","NORAD_CAT_ID":"47724","INCLINATION":"53.0544","LAUNCH_DATE":"2021-03-04","TIME_SYSTEM":"UTC","CLASSIFICATION_TYPE":"U","CENTER_NAME":"EARTH","EPHEMERIS_TYPE":"0","ARG_OF_PERICENTER":"54.8315","ECCENTRICITY":"0.00019430","BSTAR":"0.00008450300000","RA_OF_ASC_NODE":"292.6036","ELEMENT_SET_NO":"999","TLE_LINE1":"1 47724U 21017C   21335.16145992  .00000977  00000-0  84503-4 0  9993","COUNTRY_CODE":"US","SITE":"AFETR","MEAN_MOTION_DDOT":"0.0000000000000","MEAN_ANOMALY":"305.2856","TLE_LINE2":"2 47724  53.0544 292.6036 0001943  54.8315 305.2856 15.06381566 43779","EPOCH":"2021-12-01T03:52:30.137088","REF_FRAME":"TEME","MEAN_MOTION_DOT":"0.00000977"},{"BSTAR":"0.00008113200000","ECCENTRICITY":"0.00014490","ARG_OF_PERICENTER":"60.8782","SITE":"AFETR","TLE_LINE1":"1 47725U 21017D   21335.46093679  .00000927  00000-0  81132-4 0  9991","COUNTRY_CODE":"US","RA_OF_ASC_NODE":"1.2682","ELEMENT_SET_NO":"999","MEAN_ANOMALY":"299.2352","MEAN_MOTION_DDOT":"0.0000000000000","MEAN_MOTION_DOT":"0.00000927","REF_FRAME":"TEME","EPOCH":"2021-12-01T11:03:44.938656","TLE_LINE2":"2 47725  53.0575   1.2682 0001449  60.8782 299.2352 15.06396988 42856","OBJECT_ID":"2021-017D","OBJECT_NAME":"STARLINK-2125","OBJECT_TYPE":"PAYLOAD","MEAN_ELEMENT_THEORY":"SGP4","APOAPSIS":"548.226","REV_AT_EPOCH":"4285","RCS_SIZE":"LARGE","PERIOD":"95.592","FILE":"3229140","DECAY_DATE":null,"SEMIMAJOR_AXIS":"6925.358","GP_ID":"190860673","PERIAPSIS":"546.219","INCLINATION":"53.0575","MEAN_MOTION":"15.06396988","NORAD_CAT_ID":"47725","EPHEMERIS_TYPE":"0","CENTER_NAME":"EARTH","LAUNCH_DATE":"2021-03-04","CLASSIFICATION_TYPE":"U","TIME_SYSTEM":"UTC"}];
